start=new Date('2022-05-06T00:00:00.000Z').valueOf();
sats=[{"SEMIMAJOR_AXIS":"6702.528","GP_ID":"202806893","TLE_LINE1":"1 52380U 22045BB  22125.91667824 -.00878262  00000-0 -46358-2 0  9999","ELEMENT_SET_NO":"999","EPHEMERIS_TYPE":"0","APOAPSIS":"325.174","MEAN_ELEMENT_THEORY":"SGP4","CENTER_NAME":"EARTH","MEAN_MOTION":"15.82139458","BSTAR":"-0.00463580000000","MEAN_MOTION_DDOT":"0.0000000000000","EPOCH":"2022-05-05T22:00:00.999936","ECCENTRICITY":"0.00011650","NORAD_CAT_ID":"52380","SITE":"AFETR","REV_AT_EPOCH":"147","RA_OF_ASC_NODE":"46.5288","MEAN_ANOMALY":"155.5701","TLE_LINE2":"2 52380  53.2176  46.5288 0001165  77.9343 155.5701 15.82139458  1475","CLASSIFICATION_TYPE":"U","TIME_SYSTEM":"UTC","FILE":"3430750","LAUNCH_DATE":"2022-04-29","MEAN_MOTION_DOT":"-0.00878262","OBJECT_ID":"2022-045BB","OBJECT_NAME":"STARLINK-3793","REF_FRAME":"TEME","INCLINATION":"53.2176","ARG_OF_PERICENTER":"77.9343","COUNTRY_CODE":"US","RCS_SIZE":null,"PERIAPSIS":"323.613","OBJECT_TYPE":"PAYLOAD","PERIOD":"91.016","DECAY_DATE":null},{"LAUNCH_DATE":"2022-04-29","FILE":"3430750","MEAN_MOTION_DOT":"-0.00878297","OBJECT_ID":"2022-045BC","OBJECT_NAME":"STARLINK-3803","REF_FRAME":"TEME","INCLINATION":"53.2176","ARG_OF_PERICENTER":"61.3703","COUNTRY_CODE":"US","RCS_SIZE":null,"PERIAPSIS":"323.654","OBJECT_TYPE":"PAYLOAD","PERIOD":"91.018","DECAY_DATE":null,"GP_ID":"202806378","SEMIMAJOR_AXIS":"6702.634","ELEMENT_SET_NO":"999","TLE_LINE1":"1 52381U 22045BC  22125.91667824 -.00878297  00000-0 -46440-2 0  9990","EPHEMERIS_TYPE":"0","APOAPSIS":"325.344","MEAN_ELEMENT_THEORY":"SGP4","CENTER_NAME":"EARTH","MEAN_MOTION":"15.82102007","BSTAR":"-0.00464400000000","MEAN_MOTION_DDOT":"0.0000000000000","EPOCH":"2022-05-05T22:00:00.999936","ECCENTRICITY":"0.00012610","NORAD_CAT_ID":"52381","REV_AT_EPOCH":"146","SITE":"AFETR","RA_OF_ASC_NODE":"46.5306","MEAN_ANOMALY":"171.5791","CLASSIFICATION_TYPE":"U","TLE_LINE2":"2 52381  53.2176  46.5306 0001261  61.3703 171.5791 15.82102007  1467","TIME_SYSTEM":"UTC"},{"OBJECT_ID":"2022-045BD","LAUNCH_DATE":"2022-04-29","FILE":"3430750","MEAN_MOTION_DOT":"-0.00878233","PERIOD":"91.017","OBJECT_TYPE":"PAYLOAD","DECAY_DATE":null,"INCLINATION":"53.2176","REF_FRAME":"TEME","OBJECT_NAME":"STARLINK-3799","RCS_SIZE":null,"PERIAPSIS":"323.618","COUNTRY_CODE":"US","ARG_OF_PERICENTER":"63.2448","CENTER_NAME":"EARTH","MEAN_ELEMENT_THEORY":"SGP4","BSTAR":"-0.00463990000000","MEAN_MOTION":"15.82119218","GP_ID":"202806466","SEMIMAJOR_AXIS":"6702.586","APOAPSIS":"325.283","EPHEMERIS_TYPE":"0","TLE_LINE1":"1 52382U 22045BD  22125.91667824 -.00878233  00000-0 -46399-2 0  9994","ELEMENT_SET_NO":"999","TIME_SYSTEM":"UTC","CLASSIFICATION_TYPE":"U","TLE_LINE2":"2 52382  53.2176  46.5292 0001242  63.2448 170.0076 15.82119218  1482","ECCENTRICITY":"0.00012420","NORAD_CAT_ID":"52382","EPOCH":"2022-05-05T22:00:00.999936","MEAN_MOTION_DDOT":"0.0000000000000","MEAN_ANOMALY":"170.0076","RA_OF_ASC_NODE":"46.5292","SITE":"AFETR","REV_AT_EPOCH":"148"},{"MEAN_MOTION_DOT":"-0.00878534","FILE":"3430750","LAUNCH_DATE":"2022-04-29","OBJECT_ID":"2022-045BE","PERIAPSIS":"323.618","RCS_SIZE":null,"COUNTRY_CODE":"US","ARG_OF_PERICENTER":"67.7995","INCLINATION":"53.2176","REF_FRAME":"TEME","OBJECT_NAME":"STARLINK-3811","DECAY_DATE":null,"PERIOD":"91.015","OBJECT_TYPE":"PAYLOAD","APOAPSIS":"325.062","EPHEMERIS_TYPE":"0","ELEMENT_SET_NO":"999","TLE_LINE1":"1 52383U 22045BE  22125.91667824 -.00878534  00000-0 -46334-2 0  9998","SEMIMAJOR_AXIS":"6702.475","GP_ID":"202806981","BSTAR":"-0.00463340000000","MEAN_MOTION":"15.82158474","CENTER_NAME":"EARTH","MEAN_ELEMENT_THEORY":"SGP4","MEAN_ANOMALY":"165.9792","RA_OF_ASC_NODE":"46.5289","REV_AT_EPOCH":"146","SITE":"AFETR","ECCENTRICITY":"0.00010770","NORAD_CAT_ID":"52383","EPOCH":"2022-05-05T22:00:00.999936","MEAN_MOTION_DDOT":"0.0000000000000","TIME_SYSTEM":"UTC","CLASSIFICATION_TYPE":"U","TLE_LINE2":"2 52383  53.2176  46.5289 0001077  67.7995 165.9792 15.82158474  1464"}];
